{"type": "FeatureCollection", "features": [ {"type": "Feature", "properties": {"norad_id": 66989, "name": "CZ-4B R/B", "group": "last-30-days", "lat": 79.04730138145027, "lon": 22.354399007133726, "alt_km": 405.5635390006373, "timestamp": "2025-12-25T03:55:54.955886+00:00", "meta": {"OBJECT_NAME": "CZ-4B R/B", "OBJECT_ID": "2025-289B", "EPOCH": "2025-12-24T19:56:14.760096", "MEAN_MOTION": 15.70162034, "ECCENTRICITY": 0.013975, "INCLINATION": 97.5229, "RA_OF_ASC_NODE": 65.0659, "ARG_OF_PERICENTER": 317.0592, "MEAN_ANOMALY": 41.9825, "EPHEMERIS_TYPE": 0, "CLASSIFICATION_TYPE": "U", "NORAD_CAT_ID": 66989, "ELEMENT_SET_NO": 999, "REV_AT_EPOCH": 246, "BSTAR": 0.00060517, "MEAN_MOTION_DOT": 0.00130062, "MEAN_MOTION_DDOT": 7.1853e-06}, "tle": {"line1": "1 66989U 25289B   25358.83072639  .00130062  71853-5  60517-3 0  9998", "line2": "2 66989  97.5229  65.0659 0139750 317.0592  41.9825 15.70162034  2467"}}, "geometry": {"type": "Point", "coordinates": [22.354399007133726, 79.04730138145027]}}, {"type": "Feature", "properties": {"norad_id": 66990, "name": "TJS-22", "group": "last-30-days", "lat": -1.7948278305480212, "lon": -140.67053374955455, "alt_km": 35776.89889105196, "timestamp": "2025-12-25T03:55:54.955899+00:00", "meta": {"OBJECT_NAME": "TJS-22", "OBJECT_ID": "2025-290A", "EPOCH": "2025-12-24T08:24:23.171616", "MEAN_MOTION": 1.00271403, "ECCENTRICITY": 0.0003407, "INCLINATION": 1.9593, "RA_OF_ASC_NODE": 285.0333, "ARG_OF_PERICENTER": 343.085, "MEAN_ANOMALY": 17.5547, "EPHEMERIS_TYPE": 0, "CLASSIFICATION_TYPE": "U", "NORAD_CAT_ID": 66990, "ELEMENT_SET_NO": 999, "REV_AT_EPOCH": 27, "BSTAR": 0, "MEAN_MOTION_DOT": 1.5e-07, "MEAN_MOTION_DDOT": 0}, "tle": {"line1": "1 66990U 25290A   25358.35026819  .00000015  00000+0  00000+0 0  9999", "line2": "2 66990   1.9593 285.0333 0003407 343.0850  17.5547  1.00271403   276"}}, "geometry": {"type": "Point", "coordinates": [-140.67053374955455, -1.7948278305480212]}}, {"type": "Feature", "properties": {"norad_id": 66991, "name": "CZ-3B R/B", "group": "last-30-days", "lat": -26.482934498948815, "lon": -176.4608364432005, "alt_km": 1924.1077067999986, "timestamp": "2025-12-25T03:55:54.955912+00:00", "meta": {"OBJECT_NAME": "CZ-3B R/B", "OBJECT_ID": "2025-290B", "EPOCH": "2025-12-15T17:23:33.043200", "MEAN_MOTION": 2.38388611, "ECCENTRICITY": 0.7240884, "INCLINATION": 28.4636, "RA_OF_ASC_NODE": 300.4666, "ARG_OF_PERICENTER": 182.7002, "MEAN_ANOMALY": 168.625, "EPHEMERIS_TYPE": 0, "CLASSIFICATION_TYPE": "U", "NORAD_CAT_ID": 66991, "ELEMENT_SET_NO": 999, "REV_AT_EPOCH": 16, "BSTAR": 0.00075879, "MEAN_MOTION_DOT": 0.00057911, "MEAN_MOTION_DDOT": -2.0514e-07}, "tle": {"line1": "1 66991U 25290B   25349.72468800  .00057911 -20514-6  75879-3 0  9998", "line2": "2 66991  28.4636 300.4666 7240884 182.7002 168.6250  2.38388611   165"}}, "geometry": {"type": "Point", "coordinates": [-176.4608364432005, -26.482934498948815]}}, {"type": "Feature", "properties": {"norad_id": 66993, "name": "2025-292A", "group": "last-30-days", "lat": -71.06132418291368, "lon": 94.65374812517912, "alt_km": 555.0112250843986, "timestamp": "2025-12-25T03:55:54.955923+00:00", "meta": {"OBJECT_NAME": "2025-292A", "OBJECT_ID": "2025-292A", "EPOCH": "2025-12-24T18:40:39.439200", "MEAN_MOTION": 15.0458194, "ECCENTRICITY": 0.0014549, "INCLINATION": 97.6497, "RA_OF_ASC_NODE": 71.2118, "ARG_OF_PERICENTER": 228.8405, "MEAN_ANOMALY": 131.1566, "EPHEMERIS_TYPE": 0, "CLASSIFICATION_TYPE": "U", "NORAD_CAT_ID": 66993, "ELEMENT_SET_NO": 999, "REV_AT_EPOCH": 220, "BSTAR": 0.00029877, "MEAN_MOTION_DOT": 4.14e-05, "MEAN_MOTION_DDOT": 0}, "tle": {"line1": "1 66993U 25292A   25358.77823425  .00004140  00000+0  29877-3 0  9998", "line2": "2 66993  97.6497  71.2118 0014549 228.8405 131.1566 15.04581940  2203"}}, "geometry": {"type": "Point", "coordinates": [94.65374812517912, -71.06132418291368]}}, {"type": "Feature", "properties": {"norad_id": 66994, "name": "2025-292B", "group": "last-30-days", "lat": -68.84604507960134, "lon": 91.92334150468176, "alt_km": 555.2326187900007, "timestamp": "2025-12-25T03:55:54.955935+00:00", "meta": {"OBJECT_NAME": "2025-292B", "OBJECT_ID": "2025-292B", "EPOCH": "2025-12-24T18:40:02.079840", "MEAN_MOTION": 15.04630168, "ECCENTRICITY": 0.0014333, "INCLINATION": 97.6506, "RA_OF_ASC_NODE": 71.2138, "ARG_OF_PERICENTER": 229.1666, "MEAN_ANOMALY": 130.8318, "EPHEMERIS_TYPE": 0, "CLASSIFICATION_TYPE": "U", "NORAD_CAT_ID": 66994, "ELEMENT_SET_NO": 999, "REV_AT_EPOCH": 220, "BSTAR": 0.00033854, "MEAN_MOTION_DOT": 4.705e-05, "MEAN_MOTION_DDOT": 0}, "tle": {"line1": "1 66994U 25292B   25358.77780185  .00004705  00000+0  33854-3 0  9991", "line2": "2 66994  97.6506  71.2138 0014333 229.1666 130.8318 15.04630168  2209"}}, "geometry": {"type": "Point", "coordinates": [91.92334150468176, -68.84604507960134]}}, {"type": "Feature", "properties": {"norad_id": 66995, "name": "2025-292C", "group": "last-30-days", "lat": -67.92714548951682, "lon": 90.95140381870267, "alt_km": 555.1182402310187, "timestamp": "2025-12-25T03:55:54.955946+00:00", "meta": {"OBJECT_NAME": "2025-292C", "OBJECT_ID": "2025-292C", "EPOCH": "2025-12-24T18:39:47.041056", "MEAN_MOTION": 15.04662519, "ECCENTRICITY": 0.001464, "INCLINATION": 97.6497, "RA_OF_ASC_NODE": 71.2124, "ARG_OF_PERICENTER": 229.5367, "MEAN_ANOMALY": 130.4583, "EPHEMERIS_TYPE": 0, "CLASSIFICATION_TYPE": "U", "NORAD_CAT_ID": 66995, "ELEMENT_SET_NO": 999, "REV_AT_EPOCH": 220, "BSTAR": 0.00039973, "MEAN_MOTION_DOT": 5.573e-05, "MEAN_MOTION_DDOT": 0}, "tle": {"line1": "1 66995U 25292C   25358.77762779  .00005573  00000+0  39973-3 0  9993", "line2": "2 66995  97.6497  71.2124 0014640 229.5367 130.4583 15.04662519  2202"}}, "geometry": {"type": "Point", "coordinates": [90.95140381870267, -67.92714548951682]}}, {"type": "Feature", "properties": {"norad_id": 66996, "name": "2025-292D", "group": "last-30-days", "lat": -66.10057011947919, "lon": 89.25022132394281, "alt_km": 555.2672928784059, "timestamp": "2025-12-25T03:55:54.955956+00:00", "meta": {"OBJECT_NAME": "2025-292D", "OBJECT_ID": "2025-292D", "EPOCH": "2025-12-24T18:39:16.108128", "MEAN_MOTION": 15.04674655, "ECCENTRICITY": 0.0013749, "INCLINATION": 97.6493, "RA_OF_ASC_NODE": 71.2121, "ARG_OF_PERICENTER": 232.0545, "MEAN_ANOMALY": 127.944, "EPHEMERIS_TYPE": 0, "CLASSIFICATION_TYPE": "U", "NORAD_CAT_ID": 66996, "ELEMENT_SET_NO": 999, "REV_AT_EPOCH": 220, "BSTAR": 0.00026324, "MEAN_MOTION_DOT": 3.648e-05, "MEAN_MOTION_DDOT": 0}, "tle": {"line1": "1 66996U 25292D   25358.77726977  .00003648  00000+0  26324-3 0  9991", "line2": "2 66996  97.6493  71.2121 0013749 232.0545 127.9440 15.04674655  2209"}}, "geometry": {"type": "Point", "coordinates": [89.25022132394281, -66.10057011947919]}}, {"type": "Feature", "properties": {"norad_id": 66997, "name": "2025-292E", "group": "last-30-days", "lat": -61.81892693793375, "lon": 86.13181525467095, "alt_km": 555.3278068490708, "timestamp": "2025-12-25T03:55:54.955966+00:00", "meta": {"OBJECT_NAME": "2025-292E", "OBJECT_ID": "2025-292E", "EPOCH": "2025-12-24T20:13:51.652416", "MEAN_MOTION": 15.04765613, "ECCENTRICITY": 0.0014159, "INCLINATION": 97.6512, "RA_OF_ASC_NODE": 71.2826, "ARG_OF_PERICENTER": 232.8673, "MEAN_ANOMALY": 127.1261, "EPHEMERIS_TYPE": 0, "CLASSIFICATION_TYPE": "U", "NORAD_CAT_ID": 66997, "ELEMENT_SET_NO": 999, "REV_AT_EPOCH": 220, "BSTAR": 0.00030746, "MEAN_MOTION_DOT": 4.283e-05, "MEAN_MOTION_DDOT": 0}, "tle": {"line1": "1 66997U 25292E   25358.84295894  .00004283  00000+0  30746-3 0  9998", "line2": "2 66997  97.6512  71.2826 0014159 232.8673 127.1261 15.04765613  2208"}}, "geometry": {"type": "Point", "coordinates": [86.13181525467095, -61.81892693793375]}}, {"type": "Feature", "properties": {"norad_id": 66998, "name": "2025-292F", "group": "last-30-days", "lat": -53.2944656595051, "lon": 81.99824656622089, "alt_km": 555.6426731377869, "timestamp": "2025-12-25T03:55:54.955976+00:00", "meta": {"OBJECT_NAME": "2025-292F", "OBJECT_ID": "2025-292F", "EPOCH": "2025-12-24T20:11:34.355904", "MEAN_MOTION": 15.04946668, "ECCENTRICITY": 0.0015274, "INCLINATION": 97.6531, "RA_OF_ASC_NODE": 71.2879, "ARG_OF_PERICENTER": 233.7776, "MEAN_ANOMALY": 126.2039, "EPHEMERIS_TYPE": 0, "CLASSIFICATION_TYPE": "U", "NORAD_CAT_ID": 66998, "ELEMENT_SET_NO": 999, "REV_AT_EPOCH": 221, "BSTAR": 0.00040871, "MEAN_MOTION_DOT": 5.744e-05, "MEAN_MOTION_DDOT": 0}, "tle": {"line1": "1 66998U 25292F   25358.84136986  .00005744  00000+0  40871-3 0  9998", "line2": "2 66998  97.6531  71.2879 0015274 233.7776 126.2039 15.04946668  2216"}}, "geometry": {"type": "Point", "coordinates": [81.99824656622089, -53.2944656595051]}}, {"type": "Feature", "properties": {"norad_id": 66999, "name": "2025-292G", "group": "last-30-days", "lat": -49.95984297902665, "lon": 80.81970715269297, "alt_km": 555.6983458684908, "timestamp": "2025-12-25T03:55:54.955987+00:00", "meta": {"OBJECT_NAME": "2025-292G", "OBJECT_ID": "2025-292G", "EPOCH": "2025-12-24T20:10:40.918368", "MEAN_MOTION": 15.0501079, "ECCENTRICITY": 0.0014785, "INCLINATION": 97.654, "RA_OF_ASC_NODE": 71.2903, "ARG_OF_PERICENTER": 235.7706, "MEAN_ANOMALY": 124.212, "EPHEMERIS_TYPE": 0, "CLASSIFICATION_TYPE": "U", "NORAD_CAT_ID": 66999, "ELEMENT_SET_NO": 999, "REV_AT_EPOCH": 221, "BSTAR": 0.00041427, "MEAN_MOTION_DOT": 5.833e-05, "MEAN_MOTION_DDOT": 0}, "tle": {"line1": "1 66999U 25292G   25358.84075137  .00005833  00000+0  41427-3 0  9996", "line2": "2 66999  97.6540  71.2903 0014785 235.7706 124.2120 15.05010790  2214"}}, "geometry": {"type": "Point", "coordinates": [80.81970715269297, -49.95984297902665]}}]}